{
    "links": {
        "self": "http://www.neowsapp.com/rest/v1/neo/3358224?api_key=iIulBulltgU6a56xZRHN4H3l9WmuAYTsLGpBGhQ2"
    },
    "id": "3358224",
    "neo_reference_id": "3358224",
    "name": "(2006 VZ2)",
    "designation": "2006 VZ2",
    "nasa_jpl_url": "http://ssd.jpl.nasa.gov/sbdb.cgi?sstr=3358224",
    "absolute_magnitude_h": 19.7,
    "estimated_diameter": {
        "kilometers": {
            "estimated_diameter_min": 0.3051792326,
            "estimated_diameter_max": 0.6824015094
        },
        "meters": {
            "estimated_diameter_min": 305.1792325939,
            "estimated_diameter_max": 682.4015094011
        },
        "miles": {
            "estimated_diameter_min": 0.1896295249,
            "estimated_diameter_max": 0.4240245083
        },
        "feet": {
            "estimated_diameter_min": 1001.2442334633,
            "estimated_diameter_max": 2238.8501681036
        }
    },
    "is_potentially_hazardous_asteroid": false,
    "close_approach_data": [
        {
            "close_approach_date": "2006-11-29",
            "close_approach_date_full": "2006-Nov-29 13:10",
            "epoch_date_close_approach": 1164805800000,
            "relative_velocity": {
                "kilometers_per_second": "24.4461157622",
                "kilometers_per_hour": "88006.0167437623",
                "miles_per_hour": "54683.5163483672"
            },
            "miss_distance": {
                "astronomical": "0.1764326328",
                "lunar": "68.6322941592",
                "kilometers": "26393946.065372136",
                "miles": "16400437.5866260368"
            },
            "orbiting_body": "Earth"
        }
    ],
    "orbital_data": {
        "orbit_id": "12",
        "orbit_determination_date": "2017-04-06 09:07:40",
        "first_observation_date": "2006-11-11",
        "last_observation_date": "2006-12-01",
        "data_arc_in_days": 20,
        "observations_used": 46,
        "orbit_uncertainty": "8",
        "minimum_orbit_intersection": ".0760878",
        "jupiter_tisserand_invariant": "2.983",
        "epoch_osculation": "2454056.5",
        "eccentricity": ".6001468568870512",
        "semi_major_axis": "2.483664115890996",
        "inclination": "36.53978220243732",
        "ascending_node_longitude": "252.1643489778508",
        "orbital_period": "1429.676309823853",
        "perihelion_distance": ".9931009031758578",
        "perihelion_argument": "215.4239996378106",
        "aphelion_distance": "3.974227328606133",
        "perihelion_time": "2454094.313903372664",
        "mean_anomaly": "350.4782606240176",
        "mean_motion": ".2518052495703414",
        "equinox": "J2000",
        "orbit_class": {
            "orbit_class_type": "APO",
            "orbit_class_description": "Near-Earth asteroid orbits which cross the Earth’s orbit similar to that of 1862 Apollo",
            "orbit_class_range": "a (semi-major axis) > 1.0 AU; q (perihelion) < 1.017 AU"
        }
    },
    "is_sentry_object": false
}